P/2009 U4 (McNaught),e,10.0808,55.3676,259.8396,5.077366,0.0861482,0.67506352,249.1115,07/26.0/2017,2000,g 14.0,4.0
# From MPC 82315
C/2009 U5 (Grauer),h,06/23.6719/2010,25.4488,121.0350,24.2497,1.004383,6.125145,2000,7.0,4.0
# From MPC 82315
C/2009 UG89 (Lemmon),h,12/12.2467/2010,130.1212,321.0550,60.6056,1.005196,3.938045,2000,9.0,4.0
# From MPC 72851
C/2009 W2 (Boattini),e,164.5077,199.6280,121.6684,11084,0.0000008,0.99937624,0.0000,05/07.3578/2010,2000,g  7.0,4.0
# From MPC105235
P/2009 WX51 (Catalina),e,9.6002,31.6635,118.1298,3.076405,0.1826580,0.74077117,139.1603,07/26.0/2017,2000,g 19.0,2.0
# From MPC 82316
C/2009 Y1 (Catalina),e,107.3399,160.3072,127.1896,348.1984,0.0001517,0.99281233,0.0000,01/30.0519/2011,2000,g  9.0,4.0
# From MPC 74247
P/2009 Y2 (Kowalski),e,29.9626,262.0153,172.4153,6.541674,0.0589075,0.63674022,158.0304,07/26.0/2017,2000,g 13.0,4.0
# From MPC 69417
P/2010 A1 (Hill),e,10.3086,47.3185,13.3264,4.387895,0.1072309,0.55403219,312.1921,07/26.0/2017,2000,g 13.0,4.0
# From MPC 75711
P/2010 A2 (LINEAR),e,5.2548,320.2207,132.9554,2.290406,0.2843384,0.12453539,73.7988,07/26.0/2017,2000,g 15.5,4.0
# From MPC 86226
P/2010 A2 (LINEAR),e,5.2548,320.2207,132.9554,2.290406,0.2843384,0.12453539,73.7988,07/26.0/2017,2000,g 15.5,4.0
# From MPC105235
P/2010 A2 (LINEAR),e,5.2548,320.2207,132.9554,2.290406,0.2843384,0.12453539,73.7988,07/26.0/2017,2000,g 15.5,4.0
# From MPC 75711
P/2010 A3 (Hill),e,14.9817,64.6938,41.4531,6.072684,0.0658617,0.73217069,175.9279,07/26.0/2017,2000,g 14.0,4.0
# From MPC 77403
C/2010 A4 (Siding Spring),e,96.7722,346.7115,271.6093,287.3429,0.0002024,0.99051646,0.0000,10/11.0156/2010,2000,g 12.5,4.0
# From MPC 72851
P/2010 A5 (LINEAR),e,5.7915,277.7063,306.9794,5.090035,0.0858268,0.66534375,227.5168,07/26.0/2017,2000,g 13.0,4.0
# From MPC 80896
C/2010 B1 (Cardinal),h,02/07.8485/2011,101.8282,277.2638,211.6644,1.000073,2.945338,2000,7.5,4.0
# From MPC105235
P/2010 B2 (WISE),e,8.9381,0.8534,155.9822,3.107300,0.1799407,0.48073574,139.2174,07/26.0/2017,2000,g 17.0,4.0
# From MPC 75008
P/2010 C1 (Scotti),e,9.1380,141.8857,4.0477,7.091508,0.0521911,0.26037038,145.6981,07/26.0/2017,2000,g  9.5,4.0
# From MPEC 2017-P09
P/2010 D1 (WISE),e,9.6301,160.8094,226.1425,4.165970,0.1159124,0.35441703,343.0653,07/26.0/2017,2000,g 14.0,4.0
# From MPC 75008
P/2010 D2 (WISE),e,57.1160,319.8257,120.3623,6.712855,0.0566687,0.45093007,153.2630,07/26.0/2017,2000,g 16.0,4.0
# From MPC 84315
C/2010 D3 (WISE),h,09/03.6935/2010,76.3257,255.0885,304.6128,1.000015,4.244556,2000,9.0,4.0
# From MPC 76025
C/2010 D4 (WISE),e,105.7611,266.7520,44.3529,62.22039,0.0020082,0.88507574,6.1129,07/26.0/2017,2000,g  6.5,4.0
# From MPC 74248
C/2010 DG56 (WISE),e,160.4078,4.1617,318.4185,67.67932,0.0017702,0.97668301,0.0000,05/16.8985/2010,2000,g 16.0,4.0
# From MPC 70361
C/2010 E1 (Garradd),e,71.6066,169.1718,297.2093,112.6459,0.0008244,0.97617963,0.0000,11/04.9458/2009,2000,g 11.5,4.0
# From MPC 75009
P/2010 E2 (Jarnac),e,15.4681,177.8094,8.2954,8.623637,0.0389196,0.72255243,103.6589,07/26.0/2017,2000,g 14.0,4.0
# From MPC 70361
C/2010 E5 (Scotti),e,18.9089,16.9094,148.0708,24.98133,0.0078937,0.84387730,22.1296,07/26.0/2017,2000,g 10.5,4.0
# From MPC 72132
C/2010 F1 (Boattini),e,64.8568,344.3113,127.7715,69.61450,0.0016969,0.94810109,4.7801,07/26.0/2017,2000,g  9.5,4.0
# From MPC 82316
C/2010 F3 (Scotti),e,4.6493,157.3189,31.4325,64.38539,0.0019078,0.91524145,4.8576,07/26.0/2017,2000,g  8.5,4.0
# From MPC 82316
C/2010 FB87 (WISE-Garradd),e,107.8319,90.0140,265.0783,224.9283,0.0002922,0.98731745,0.0000,11/05.0473/2010,2000,g 10.0,4.0
# From MPC 70816
C/2010 G1 (Boattini),e,78.2121,287.5592,168.8194,537.0438,0.0000792,0.99773510,0.0000,04/01.9448/2010,2000,g 12.5,4.0
# From MPC 83142
C/2010 G2 (Hill),e,103.7579,247.0180,137.4401,93.68923,0.0010868,0.97887787,0.0000,09/02.1572/2011,2000,g  8.0,4.0
# From MPC 75292
C/2010 G3 (WISE),e,108.2954,313.7726,75.1937,971.1028,0.0000326,0.99493441,0.0000,04/06.6533/2010,2000,g  8.5,4.0
# From MPC 82316
C/2010 H1 (Garradd),e,36.5776,347.3489,233.7535,3156,0.0000056,0.99913265,0.0000,06/21.1545/2010,2000,g 13.0,4.0
# From MPC 72851
P/2010 H2 (Vales),e,14.2630,64.2720,129.5408,3.845543,0.1306976,0.19478307,353.2106,07/26.0/2017,2000,g  6.0,4.0
# From MPC 70361
P/2010 H3 (SOHO),e,23.8458,78.2850,24.9062,3.068390,0.1833742,0.98464106,0.0000,09/25.7414/2015,2000,g 20.0,2.0
# From MPC 73463
P/2010 H4 (Scotti),e,2.3226,44.7579,179.3601,6.581632,0.0583719,0.26910632,151.3530,07/26.0/2017,2000,g 10.5,4.0
# From MPC 74637
P/2010 H5 (Scotti),e,14.0874,24.7971,175.0292,7.139716,0.0516634,0.15638743,137.2719,07/26.0/2017,2000,g 13.0,2.0
# From MPC 71278
C/2010 J1 (Boattini),e,134.4893,254.6013,332.8209,35.98210,0.0045664,0.95288649,12.4718,07/26.0/2017,2000,g 12.0,4.0
# From MPC 75712
C/2010 J2 (McNaught),e,125.8975,311.8014,4.4016,1369,0.0000195,0.99753384,0.0000,06/01.3010/2010,2000,g  9.0,4.0
# From MPC 82316
P/2010 J3 (McMillan),e,13.2700,106.4835,157.4067,8.958265,0.0367594,0.72737376,92.8647,07/26.0/2017,2000,g 11.0,4.0
# From MPC 84315
P/2010 JC81 (WISE),e,38.6025,30.8335,12.5805,8.126311,0.0425465,0.77588742,97.3051,07/26.0/2017,2000,g  9.0,4.0
# From MPC 74248
C/2010 KW7 (WISE),e,147.0590,105.0467,332.7134,98.43223,0.0010092,0.97378737,0.0000,10/12.1636/2010,2000,g 15.0,2.0
# From MPC 83518
C/2010 L3 (Catalina),h,11/09.9601/2010,102.4964,38.2795,121.8556,1.000576,9.896732,2000,4.5,4.0
# From MPC 74248
C/2010 L4 (WISE),e,102.7914,125.4663,95.6194,79.83327,0.0013817,0.96480621,3.7408,07/26.0/2017,2000,g 11.5,4.0
# From MPC 74248
C/2010 L5 (WISE),e,146.8584,206.3686,214.3271,8.024239,0.0433609,0.90262411,115.0599,07/26.0/2017,2000,g 18.0,4.0
# From MPC 73463
P/2010 P4 (WISE),e,24.0786,2.2334,354.1565,3.705491,0.1381769,0.49784275,356.7834,07/26.0/2017,2000,g 19.5,6.0
# From MPC 88325
C/2010 R1 (LINEAR),e,156.9318,343.6888,114.5975,7450,0.0000015,0.99924335,0.0000,05/16.6995/2012,2000,g  6.0,4.0
# From MPC 95208
C/2010 S1 (LINEAR),h,05/18.7084/2013,125.3115,93.4298,118.4933,1.001368,5.894546,2000,3.5,4.0
# From MPC 74248
P/2010 T2 (PANSTARRS),e,8.0370,59.5608,355.5910,5.485670,0.0767113,0.31691120,169.8902,07/26.0/2017,2000,g 11.5,4.0
# From MPC 81468
P/2010 TO20 (LINEAR-Grauer),e,2.4820,43.2819,269.9543,5.811382,0.0703534,0.05289913,220.2991,07/26.0/2017,2000,g  9.0,4.0
# From MPC 82316
P/2010 U1 (Boattini),e,8.2143,280.7182,86.1938,6.518364,0.0592238,0.24657731,162.1014,07/26.0/2017,2000,g  9.5,4.0
# From MPC 74249
P/2010 U2 (Hill),e,16.8284,357.0861,44.3708,4.283301,0.1111824,0.40047702,273.0997,07/26.0/2017,2000,g 13.0,4.0
# From MPC105540
C/2010 U3 (Boattini),h,02/26.1907/2019,55.5122,43.0729,88.0675,1.000688,8.445765,2000,1.0,4.0
# From MPC 79021
P/2010 UH55 (Spacewatch),e,8.3076,234.2519,224.0235,6.618708,0.0578821,0.57108666,130.9836,07/26.0/2017,2000,g 11.0,4.0
# From MPC 75009
P/2010 WK (LINEAR),e,11.4143,11.3941,41.1294,5.752454,0.0714372,0.68950130,177.0186,07/26.0/2017,2000,g 14.5,2.0
# From MPC 76025
C/2010 X1 (Elenin),e,1.8756,322.0917,344.5001,461.9438,0.0000993,0.99898022,0.0000,09/09.7932/2011,2000,g 10.0,4.0
# From MPC 82317
P/2011 A2 (Scotti),e,4.4757,54.6720,94.6115,3.103900,0.1802364,0.49979426,73.3669,07/26.0/2017,2000,g 16.5,4.0
# From MPC 85831
C/2011 A3 (Gibbs),e,26.0827,124.7735,141.0690,782.5058,0.0000450,0.99702029,0.0000,12/17.3334/2011,2000,g 10.0,4.0
# From MPC 82317
C/2011 C1 (McNaught),e,16.3093,191.2466,85.6538,501.2470,0.0000878,0.99824589,0.0000,04/18.4864/2011,2000,g 15.5,4.0
# From MPC 84021
P/2011 C2 (Gibbs),e,10.8909,12.0907,161.0807,7.405605,0.0489061,0.27102498,98.8792,07/26.0/2017,2000,g  9.0,4.0
# From MPC 75516
C/2011 C3 (Gibbs),e,49.5303,20.8293,206.7773,303.5596,0.0001864,0.99502010,0.0000,04/09.2692/2011,2000,g 17.0,4.0
# From MPC 86639
P/2011 CR42 (Catalina),e,8.4642,58.7272,173.2554,3.506258,0.1501199,0.28099050,310.1437,07/26.0/2017,2000,g 13.0,2.0
# From MPC 89309
C/2011 F1 (LINEAR),e,56.7212,85.0160,192.4927,2431,0.0000082,0.99925385,0.0000,01/08.3420/2013,2000,g  5.0,4.0
# From MPC 79866
P/2011 FR143 (Lemmon),e,16.0193,190.9196,350.1234,6.842940,0.0550605,0.45363218,128.1716,07/26.0/2017,2000,g 14.0,2.0
# From MPC 80044
C/2011 G1 (McNaught),h,09/16.7727/2011,162.2200,153.0557,355.1429,1.001145,2.164160,2000,12.0,4.0
# From MPC103843
C/2011 J2 (LINEAR),h,12/25.9306/2013,122.7830,163.9383,85.2992,1.001695,3.440772,2000,5.5,3.6
# From MPEC 2015-K84
C/2011 J2-B (LINEAR),h,12/25.8080/2013,122.7857,163.9348,85.2567,1.002456,3.439975,2000,9.0,3.6
# From unp
C/2011 J2-C (LINEAR),h,12/25.9005/2013,122.7810,163.9400,85.2738,1.002492,3.439812,2000,11.0,3.6
# From MPC 75713
C/2011 J3 (LINEAR),e,114.4239,21.5772,27.8119,19.56185,0.0113917,0.92595782,27.0736,07/26.0/2017,2000,g 15.0,4.0
# From MPC 82317
P/2011 JB15 (Spacewatch-Boattini),e,19.1520,153.7138,110.5885,7.343861,0.0495242,0.31849909,99.7325,07/26.0/2017,2000,g  9.0,4.0
# From MPC 75516
C/2011 K1 (Schwartz-Holvorcem),e,122.6239,70.5821,166.9103,3553,0.0000047,0.99904948,0.0000,04/19.6023/2011,2000,g 12.0,4.0
# From MPC104789
C/2011 KP36 (Spacewatch),e,18.9852,173.3969,180.5668,38.43505,0.0041363,0.87296299,1.7594,07/26.0/2017,2000,g  4.5,4.0
# From MPC 83518
C/2011 L1 (McNaught),e,65.4851,252.1597,294.4831,11.03407,0.0268906,0.79705559,64.8414,07/26.0/2017,2000,g 11.0,4.0
# From MPC 78588
C/2011 L2 (McNaught),e,104.3886,131.4319,257.0381,5101,0.0000027,0.99961758,0.0000,10/29.6684/2011,2000,g 12.5,4.0
# From MPC 77405
C/2011 L3 (McNaught),e,87.2475,307.7281,27.6114,909.6417,0.0000359,0.99788575,0.0000,08/08.2251/2011,2000,g 12.5,4.0
# From MPC103843
C/2011 L4 (PANSTARRS),e,83.9141,65.9755,333.6327,7937,0.0000014,0.99996196,0.0000,03/09.5817/2013,2000,g  5.5,4.0
# From MPC 82718
C/2011 L6 (Boattini),e,171.4422,214.4216,331.4131,7422,0.0000015,0.99908430,0.0000,01/17.5008/2011,2000,g  9.0,4.0
# From MPC 75714
C/2011 M1 (LINEAR),h,09/05.9126/2011,70.1536,324.8478,119.7780,1.002444,0.907536,2000,12.0,4.0
# From MPC 87913
